{"type":"FeatureCollection", "features": [
{"type":"Feature","geometry":{"type":"MultiPolygon","coordinates":[[[[92.641,21.3086],[92.6392,21.3187],[92.6033,21.4201],[92.5927,21.4702],[92.5902,21.4955],[92.5756,21.734],[92.593,21.8869],[92.5902,21.9172],[92.5759,21.9776],[92.5731,21.9954],[92.56,22.0613],[92.5373,22.1286],[92.5493,22.1385],[92.5642,22.1383],[92.5756,22.1433],[92.577,22.1687],[92.5189,22.4954],[92.5174,22.5126],[92.5046,22.5438],[92.5008,22.5605],[92.5029,22.6186],[92.4959,22.6956],[92.4915,22.7111],[92.4807,22.7262],[92.4537,22.748],[92.442,22.7629],[92.435,22.7933],[92.4263,22.8711],[92.4119,22.8879],[92.3787,22.9004],[92.3599,22.9266],[92.3522,22.9603],[92.3531,23.0299],[92.3276,23.1714],[92.3286,23.2112],[92.3327,23.2263],[92.3507,23.261],[92.3575,23.2789],[92.3569,23.2891],[92.3471,23.3154],[92.3495,23.345],[92.3449,23.3591],[92.3317,23.3687],[92.3254,23.3822],[92.3269,23.396],[92.3198,23.4122],[92.3067,23.4239],[92.2968,23.4466],[92.291,23.4953],[92.2528,23.6093],[92.25,23.6426],[92.2617,23.6851],[92.2597,23.7026],[92.2593,23.7065],[92.2387,23.7168],[92.2221,23.7078],[92.2094,23.6616],[92.1943,23.6481],[92.1808,23.6654],[92.1706,23.7036],[92.1508,23.7317],[92.1084,23.7182],[92.0922,23.7013],[92.0596,23.6595],[92.0424,23.6456],[92.019,23.6401],[92.0035,23.6474],[91.9617,23.6911],[91.9491,23.7098],[91.9366,23.7235],[91.9227,23.723],[91.9165,23.7099],[91.9144,23.6883],[91.916,23.6502],[91.9423,23.5344],[91.9408,23.4952],[91.9181,23.4599],[91.9051,23.4466],[91.8891,23.4359],[91.8338,23.4139],[91.8177,23.4009],[91.7916,23.3683],[91.7626,23.3215],[91.7437,23.2723],[91.7492,23.2324],[91.7639,23.2006],[91.779,23.1318],[91.7956,23.0895],[91.7913,23.0804],[91.7762,23.0653],[91.7609,23.0655],[91.756,23.0615],[91.7551,23.0482],[91.7383,23.0247],[91.707,22.9954],[91.6947,22.9881],[91.6676,22.9826],[91.6469,22.9766],[91.6258,22.9815],[91.6167,22.9781],[91.6024,22.953],[91.5861,22.9445],[91.5831,22.9578],[91.5768,22.9688],[91.5631,22.975],[91.5366,22.9819],[91.5236,22.9952],[91.5194,23.0056],[91.5182,23.0351],[91.5033,23.0444],[91.4981,23.07],[91.4751,23.1431],[91.4704,23.1533],[91.4636,23.1841],[91.4464,23.1979],[91.4464,23.2155],[91.4362,23.2157],[91.4136,23.2486],[91.3943,23.2627],[91.3721,23.2619],[91.361,23.2475],[91.3557,23.2241],[91.3559,23.1796],[91.3746,23.0957],[91.3709,23.0628],[91.3374,23.0711],[91.3135,23.101],[91.3005,23.1423],[91.2773,23.3033],[91.2658,23.3294],[91.2829,23.3476],[91.284,23.3614],[91.2709,23.3646],[91.2581,23.3736],[91.2479,23.3938],[91.2345,23.4363],[91.2273,23.4688],[91.2208,23.4779],[91.1951,23.4952],[91.1859,23.5116],[91.1775,23.5443],[91.1699,23.562],[91.1408,23.6121],[91.1363,23.6295],[91.1397,23.6536],[91.1665,23.6541],[91.1752,23.6703],[91.1689,23.6854],[91.1366,23.6989],[91.1323,23.7206],[91.1418,23.7399],[91.1576,23.745],[91.1766,23.7465],[91.195,23.7552],[91.2052,23.7716],[91.2253,23.8261],[91.2282,23.845],[91.2128,23.8807],[91.2119,23.8945],[91.2163,23.9084],[91.2504,23.964],[91.2609,23.9773],[91.2741,23.9882],[91.2916,23.9948],[91.3084,23.9925],[91.3129,24.0247],[91.2987,24.0413],[91.2885,24.0751],[91.2853,24.1003],[91.2862,24.113],[91.2815,24.13],[91.274,24.145],[91.2747,24.1617],[91.289,24.1722],[91.3107,24.1763],[91.3105,24.1852],[91.2864,24.1914],[91.2808,24.1988],[91.2871,24.2056],[91.3146,24.2205],[91.332,24.2346],[91.3321,24.2412],[91.3194,24.2461],[91.2943,24.2385],[91.2607,24.2129],[91.2356,24.2173],[91.1534,24.2564],[91.1404,24.2479],[91.1234,24.2427],[91.1037,24.241],[91.0948,24.2365],[91.0969,24.2146],[91.0941,24.2068],[91.0797,24.2085],[91.066,24.218],[91.0331,24.1761],[91.0041,24.1659],[91.0071,24.1415],[91.0249,24.1181],[91.0177,24.1038],[91.0372,24.0931],[91.0297,24.0721],[91.0103,24.0516],[90.9939,24.0424],[90.9824,24.0323],[90.9735,24.0087],[90.9779,23.9896],[90.9729,23.965],[90.9524,23.9232],[90.9142,23.8747],[90.8911,23.8595],[90.8798,23.8626],[90.8499,23.8802],[90.8228,23.871],[90.7923,23.8722],[90.7785,23.8688],[90.7657,23.8597],[90.7562,23.8465],[90.7555,23.8384],[90.7611,23.8168],[90.7599,23.802],[90.7392,23.7527],[90.7237,23.7308],[90.7251,23.7155],[90.7395,23.7062],[90.7494,23.6951],[90.7511,23.6808],[90.7433,23.6673],[90.7345,23.6594],[90.7612,23.6342],[90.7699,23.6229],[90.7676,23.6178],[90.7521,23.6159],[90.7404,23.6104],[90.7362,23.6018],[90.7434,23.5905],[90.7334,23.5801],[90.7113,23.5671],[90.7023,23.5548],[90.7112,23.5488],[90.7158,23.5351],[90.715,23.4984],[90.6916,23.4865],[90.6333,23.4868],[90.6087,23.4727],[90.6003,23.4499],[90.5991,23.3912],[90.6017,23.3725],[90.6113,23.3425],[90.6284,23.3215],[90.6537,23.3297],[90.6611,23.3223],[90.6502,23.3135],[90.6509,23.3002],[90.6673,23.2676],[90.6611,23.2676],[90.6652,23.2488],[90.6571,23.2304],[90.6458,23.2109],[90.6401,23.1889],[90.6387,23.1479],[90.6272,23.0867],[90.6294,23.0644],[90.6401,23.038],[90.7175,22.9406],[90.7227,22.9285],[90.7256,22.9057],[90.7329,22.8891],[90.75,22.8568],[90.7573,22.8227],[90.7695,22.7954],[90.7742,22.7781],[90.7883,22.7592],[90.7949,22.7414],[90.8195,22.7265],[90.8313,22.6906],[90.8359,22.6849],[90.8655,22.6872],[90.8765,22.6828],[90.8841,22.6545],[90.8988,22.6362],[90.9082,22.6179],[90.9356,22.5997],[90.9417,22.5859],[90.9549,22.5758],[90.9851,22.5744],[91.0176,22.5793],[91.0379,22.5886],[91.0402,22.6077],[91.0322,22.6369],[91.0187,22.6645],[91.0038,22.6787],[91.0183,22.6831],[91.0267,22.6743],[91.0379,22.6439],[91.0487,22.6262],[91.0586,22.6143],[91.0696,22.5716],[91.0892,22.5444],[91.1273,22.527],[91.1766,22.5364],[91.2027,22.5432],[91.2214,22.5572],[91.2416,22.5754],[91.2531,22.6138],[91.2611,22.6279],[91.2645,22.6408],[91.2534,22.6607],[91.2269,22.6711],[91.169,22.6849],[91.169,22.6923],[91.1921,22.6916],[91.1992,22.6988],[91.1946,22.7097],[91.1819,22.7202],[91.1819,22.7265],[91.2161,22.7261],[91.2434,22.7202],[91.2434,22.7022],[91.2835,22.6933],[91.3005,22.6933],[91.3174,22.6972],[91.3299,22.7057],[91.3328,22.7202],[91.325,22.7261],[91.2908,22.7384],[91.3426,22.7394],[91.3601,22.7434],[91.3701,22.7522],[91.3674,22.7617],[91.3464,22.7674],[91.3464,22.7748],[91.3683,22.774],[91.385,22.7707],[91.3997,22.7643],[91.4147,22.7537],[91.4116,22.7778],[91.4168,22.8],[91.4304,22.8163],[91.4525,22.8227],[91.4624,22.8334],[91.4797,22.8859],[91.4831,22.9045],[91.4905,22.9045],[91.49,22.8806],[91.474,22.8383],[91.4678,22.8093],[91.4583,22.7971],[91.4563,22.7848],[91.4624,22.7619],[91.469,22.7571],[91.4768,22.7612],[91.4846,22.7455],[91.4987,22.7273],[91.5164,22.7122],[91.5481,22.7003],[91.676,22.5346],[91.7437,22.4111],[91.7544,22.3747],[91.7717,22.2603],[91.7871,22.2379],[91.8089,22.2363],[91.8259,22.2485],[91.8263,22.2678],[91.8045,22.2785],[91.794,22.286],[91.7914,22.3019],[91.7986,22.3119],[91.8233,22.3242],[91.8263,22.3292],[91.844,22.3349],[91.8775,22.3633],[91.8757,22.3711],[91.8855,22.4097],[91.8877,22.4248],[91.9081,22.4248],[91.8849,22.3538],[91.874,22.336],[91.8524,22.3253],[91.8265,22.3183],[91.8088,22.3063],[91.812,22.2814],[91.8298,22.2713],[91.8384,22.2631],[91.8399,22.2466],[91.8347,22.2376],[91.8169,22.2203],[91.812,22.205],[91.813,22.1803],[91.8193,22.156],[91.8291,22.1341],[91.8399,22.1169],[91.846,22.1169],[91.846,22.136],[91.8533,22.1487],[91.8552,22.1092],[91.8809,22.007],[91.8809,21.9692],[91.884,21.9602],[91.8982,21.9449],[91.9012,21.9354],[91.9056,21.8956],[91.9103,21.8749],[91.9157,21.8625],[91.9299,21.8786],[91.9497,21.8842],[91.9497,21.8767],[91.9255,21.8629],[91.9216,21.8534],[91.9294,21.8432],[91.9114,21.8347],[91.9009,21.8133],[91.8993,21.7895],[91.9087,21.7812],[91.9437,21.7914],[91.99,21.7948],[91.99,21.7879],[91.9666,21.7789],[91.9603,21.7638],[91.9673,21.7554],[91.9839,21.7668],[91.99,21.76],[91.9748,21.7465],[91.953,21.7383],[91.9497,21.716],[91.9536,21.7014],[91.9627,21.6895],[91.9719,21.6882],[91.9771,21.7054],[91.9839,21.7054],[91.9842,21.6935],[91.9761,21.6621],[91.9839,21.6501],[92.0007,21.6498],[92.0124,21.6642],[92.0254,21.6986],[92.0293,21.6962],[92.0228,21.6768],[92.0359,21.6682],[92.0378,21.6596],[92.0317,21.6501],[92.0358,21.6404],[92.033,21.633],[92.0179,21.616],[92.0221,21.5994],[92.0125,21.5854],[91.9985,21.5732],[91.99,21.562],[91.9898,21.5434],[91.9954,21.5226],[92.0054,21.5043],[91.9829,21.4888],[91.9709,21.47],[91.9634,21.4521],[91.9497,21.4584],[91.953,21.4418],[91.9597,21.424],[91.9694,21.4096],[91.9805,21.4038],[91.9898,21.3942],[92.0453,21.2995],[92.0505,21.2805],[92.0523,21.2567],[92.044,21.192],[92.0454,21.171],[92.0525,21.1548],[92.0969,21.1059],[92.1081,21.0899],[92.1244,21.0605],[92.1341,21.0475],[92.1863,21.0058],[92.1929,20.9957],[92.2097,20.9308],[92.2781,20.8141],[92.301,20.7623],[92.3255,20.7387],[92.334,20.7464],[92.3363,20.7571],[92.3259,20.7806],[92.3076,20.8332],[92.3054,20.852],[92.3006,20.8624],[92.272,20.9035],[92.2615,20.9403],[92.2571,20.9811],[92.2586,21.0225],[92.2651,21.0611],[92.2243,21.0932],[92.2118,21.1235],[92.1883,21.1441],[92.1808,21.1579],[92.175,21.1756],[92.184,21.2209],[92.1852,21.2404],[92.1781,21.2801],[92.1783,21.2997],[92.1837,21.3172],[92.2116,21.3549],[92.2251,21.3975],[92.2363,21.4171],[92.2529,21.4195],[92.2845,21.4191],[92.3227,21.4619],[92.3547,21.4518],[92.3679,21.4354],[92.3742,21.4023],[92.3812,21.3848],[92.4003,21.371],[92.4231,21.3637],[92.4654,21.3598],[92.4987,21.3666],[92.5245,21.3611],[92.5439,21.3209],[92.5516,21.2805],[92.5587,21.2598],[92.5706,21.2473],[92.5909,21.2489],[92.6143,21.2631],[92.6338,21.2822],[92.6429,21.2984],[92.641,21.3086]]],[[[91.9356,21.76],[91.9356,21.7812],[91.9012,21.7743],[91.9084,21.7522],[91.9095,21.7268],[91.9033,21.7029],[91.8909,21.699],[91.9028,21.7303],[91.898,21.7433],[91.8833,21.7539],[91.8723,21.7548],[91.863,21.7456],[91.8535,21.7258],[91.8479,21.6888],[91.8689,21.6222],[91.874,21.5819],[91.8737,21.558],[91.8711,21.5477],[91.8555,21.5267],[91.8626,21.4949],[91.8771,21.481],[91.8877,21.4801],[91.8997,21.486],[91.8945,21.5068],[91.9141,21.5095],[91.9392,21.5054],[91.9611,21.5062],[91.9702,21.5236],[91.9724,21.5461],[91.9817,21.5881],[91.9839,21.6092],[91.9749,21.6487],[91.9387,21.7148],[91.9356,21.76]]],[[[91.8877,21.8662],[91.8861,21.8803],[91.874,21.9177],[91.8672,21.932],[91.8434,21.907],[91.8362,21.8941],[91.8325,21.8767],[91.8399,21.8255],[91.824,21.7426],[91.8325,21.7258],[91.8411,21.7354],[91.8628,21.79],[91.8704,21.8246],[91.8845,21.8503],[91.8877,21.8662]]],[[[91.1488,22.3571],[91.1269,22.3749],[91.0923,22.3913],[91.0748,22.3886],[91.0691,22.311],[91.0683,22.2407],[91.0591,22.192],[91.0523,22.1754],[91.034,22.1488],[91.0051,22.1168],[91.0113,22.1021],[91.0225,22.0949],[91.0386,22.0911],[91.0633,22.0898],[91.0824,22.1014],[91.0937,22.1189],[91.1064,22.1217],[91.1207,22.1303],[91.1415,22.1462],[91.1609,22.1821],[91.1706,22.1972],[91.1868,22.2278],[91.1819,22.2603],[91.1814,22.2836],[91.1714,22.3196],[91.1565,22.3321],[91.1488,22.3571]]],[[[91.1586,22.5034],[91.1236,22.4891],[91.1137,22.4614],[91.1342,22.4495],[91.1595,22.4507],[91.1802,22.4592],[91.201,22.4722],[91.2108,22.4955],[91.2,22.5147],[91.1586,22.5034]]],[[[91.4676,22.5863],[91.4468,22.5763],[91.4238,22.5253],[91.4297,22.493],[91.4465,22.4532],[91.4761,22.4133],[91.5075,22.3968],[91.5552,22.402],[91.5636,22.4356],[91.5564,22.4782],[91.4676,22.5863]]]]},"properties":{"name":"Chittagong"}},
{"type":"Feature","geometry":{"type":"Polygon","coordinates":[[[92.15,24.5422],[92.1636,24.5592],[92.1689,24.5743],[92.1734,24.6084],[92.1829,24.6473],[92.2338,24.7775],[92.2369,24.8086],[92.235,24.8248],[92.2218,24.8569],[92.2177,24.8746],[92.223,24.8914],[92.2522,24.903],[92.2904,24.8913],[92.3583,24.8537],[92.3636,24.841],[92.3807,24.8367],[92.442,24.8554],[92.4777,24.8639],[92.4915,24.8837],[92.4945,24.8949],[92.4913,24.9123],[92.4838,24.9282],[92.4744,24.9367],[92.4498,24.9464],[92.4581,24.9533],[92.4125,24.9841],[92.4123,24.9874],[92.387,24.9951],[92.3849,25.0048],[92.3811,25.0234],[92.3563,25.037],[92.3281,25.048],[92.3121,25.0686],[92.3035,25.0743],[92.2516,25.0808],[92.2201,25.0904],[92.1941,25.1092],[92.1792,25.1267],[92.1647,25.1336],[92.151,25.1297],[92.1386,25.1364],[92.1241,25.137],[92.1104,25.1449],[92.1005,25.1591],[92.0929,25.1647],[92.066,25.1745],[92.034,25.1817],[92.0018,25.183],[91.9563,25.1698],[91.9006,25.1776],[91.7937,25.1653],[91.7453,25.1694],[91.7301,25.1675],[91.7177,25.1498],[91.7107,25.1447],[91.6889,25.153],[91.6774,25.1526],[91.6723,25.1365],[91.662,25.1272],[91.6387,25.124],[91.6131,25.1251],[91.5962,25.1289],[91.5802,25.1409],[91.5661,25.16],[91.5488,25.1611],[91.5402,25.1576],[91.5234,25.1452],[91.471,25.1339],[91.4319,25.138],[91.284,25.179],[91.2357,25.2019],[91.225,25.2016],[91.2031,25.1913],[91.1908,25.1895],[91.1353,25.1912],[90.9751,25.1678],[90.9434,25.1574],[90.9348,25.1564],[90.9317,25.1133],[90.9467,25.0695],[90.943,25.0465],[90.9323,25.0318],[90.9237,25.015],[90.9124,24.9789],[90.9777,24.8806],[91.0066,24.8688],[91.1253,24.8801],[91.1453,24.8145],[91.1489,24.77],[91.1419,24.7177],[91.1483,24.6996],[91.2025,24.6986],[91.2131,24.6938],[91.2229,24.6742],[91.2221,24.6664],[91.2118,24.6497],[91.2072,24.6253],[91.1838,24.6147],[91.1842,24.6072],[91.1966,24.593],[91.2018,24.5822],[91.2136,24.5719],[91.2314,24.5631],[91.2175,24.5295],[91.2069,24.5111],[91.1887,24.4911],[91.1876,24.4836],[91.203,24.4711],[91.226,24.4654],[91.2314,24.4417],[91.2303,24.4296],[91.2137,24.4187],[91.2354,24.4008],[91.2469,24.3867],[91.2488,24.3792],[91.2257,24.357],[91.2392,24.337],[91.2176,24.3231],[91.1836,24.3092],[91.1691,24.2751],[91.1534,24.2564],[91.2356,24.2173],[91.2607,24.2129],[91.2943,24.2385],[91.3194,24.2461],[91.3321,24.2412],[91.332,24.2346],[91.3146,24.2205],[91.2871,24.2056],[91.2808,24.1988],[91.2864,24.1914],[91.3105,24.1852],[91.3107,24.1763],[91.289,24.1722],[91.2747,24.1617],[91.274,24.145],[91.2815,24.13],[91.2862,24.113],[91.2853,24.1003],[91.2885,24.0751],[91.2987,24.0413],[91.3129,24.0247],[91.3084,23.9925],[91.3271,23.9879],[91.3391,23.9952],[91.3493,24.0361],[91.3508,24.0742],[91.363,24.0998],[91.4046,24.1031],[91.4804,24.088],[91.5175,24.0852],[91.5587,24.0897],[91.5818,24.0961],[91.5965,24.105],[91.606,24.1189],[91.6138,24.1401],[91.6245,24.2035],[91.6291,24.2153],[91.6395,24.2117],[91.6572,24.1714],[91.6662,24.1559],[91.6842,24.1455],[91.7037,24.1429],[91.7212,24.149],[91.7326,24.1643],[91.732,24.1817],[91.7258,24.2021],[91.723,24.221],[91.7329,24.2343],[91.7966,24.2216],[91.807,24.2211],[91.8097,24.2145],[91.8138,24.1831],[91.8442,24.1553],[91.8645,24.1506],[91.8771,24.158],[91.8843,24.1756],[91.9059,24.2606],[91.9069,24.2804],[91.8964,24.3201],[91.8998,24.3381],[91.9219,24.3445],[91.9531,24.323],[91.9722,24.3161],[91.9714,24.3297],[91.9488,24.3635],[91.95,24.3754],[92.0334,24.3688],[92.0627,24.371],[92.0883,24.3816],[92.1076,24.406],[92.1112,24.4343],[92.1059,24.4953],[92.1109,24.5143],[92.1232,24.5254],[92.15,24.5422]]]},"properties":{"name":"Sylhet"}},
{"type":"Feature","geometry":{"type":"MultiPolygon","coordinates":[[[[89.7992,25.4029],[89.7826,25.3999],[89.7683,25.3918],[89.7596,25.3771],[89.7368,25.3278],[89.7457,25.2734],[89.7399,25.2481],[89.7039,25.2024],[89.6815,25.1595],[89.6684,25.1057],[89.6591,25.0528],[89.6533,24.9689],[89.6547,24.9606],[89.6791,24.8525],[89.6877,24.8327],[89.7011,24.8082],[89.7114,24.7983],[89.7286,24.7874],[89.7581,24.7733],[89.7764,24.7579],[89.7911,24.7379],[89.796,24.7195],[89.7967,24.6985],[89.7857,24.653],[89.7843,24.6419],[89.7892,24.6228],[89.7892,24.6099],[89.7818,24.5849],[89.7708,24.5725],[89.7657,24.5619],[89.7692,24.531],[89.7677,24.5113],[89.7596,24.4799],[89.7587,24.4426],[89.7492,24.3706],[89.7493,24.3609],[89.7556,24.3225],[89.7557,24.2745],[89.7928,24.2376],[89.807,24.2266],[89.8083,24.1994],[89.8263,24.1952],[89.8301,24.1861],[89.8282,24.1769],[89.8325,24.1662],[89.8267,24.1376],[89.8196,24.119],[89.817,24.0835],[89.8001,24.0559],[89.7878,24.0451],[89.7022,23.98],[89.6891,23.9493],[89.6849,23.9273],[89.6978,23.8659],[89.6981,23.8542],[89.6752,23.8485],[89.6198,23.8438],[89.6036,23.8378],[89.5734,23.82],[89.5559,23.8149],[89.5302,23.8196],[89.4902,23.8528],[89.4675,23.8649],[89.378,23.9001],[89.3449,23.9207],[89.3595,23.8812],[89.3604,23.853],[89.3085,23.7293],[89.3115,23.7202],[89.3527,23.6718],[89.3814,23.6735],[89.4111,23.6793],[89.4213,23.6745],[89.4807,23.5931],[89.4997,23.5701],[89.5099,23.5467],[89.526,23.5375],[89.5167,23.5275],[89.497,23.5142],[89.4967,23.4995],[89.5032,23.4869],[89.5191,23.5085],[89.5484,23.5058],[89.5791,23.4902],[89.5989,23.4732],[89.6079,23.4531],[89.6268,23.3708],[89.6137,23.3761],[89.6062,23.3851],[89.5989,23.3851],[89.5978,23.3531],[89.6126,23.3153],[89.6379,23.2883],[89.6677,23.2889],[89.6565,23.2734],[89.6365,23.2554],[89.6278,23.2404],[89.6812,23.2271],[89.6835,23.21],[89.6803,23.1893],[89.695,23.1715],[89.7075,23.1701],[89.725,23.1826],[89.7366,23.1852],[89.7505,23.1799],[89.7563,23.1706],[89.7531,23.1618],[89.7341,23.1535],[89.7186,23.1334],[89.7112,23.1191],[89.701,23.1226],[89.6814,23.138],[89.682,23.1176],[89.6894,23.1039],[89.6981,23.097],[89.723,23.0896],[89.7328,23.0764],[89.7571,23.0282],[89.7732,23.0104],[89.8053,22.9832],[89.8186,22.9667],[89.8284,22.9392],[89.8384,22.9281],[89.8596,22.9183],[89.8875,22.8904],[89.9288,22.8702],[89.9812,22.8791],[89.9953,22.8862],[90.019,22.9086],[90.044,22.9406],[90.0578,22.9686],[90.0828,22.992],[90.0912,23.0039],[90.108,23.0196],[90.1266,23.0289],[90.1343,23.0475],[90.1435,23.0628],[90.1924,23.0716],[90.2118,23.0663],[90.2214,23.0508],[90.2237,23.0253],[90.2291,23.0089],[90.2485,22.987],[90.2626,22.9778],[90.2745,22.9736],[90.2892,22.9754],[90.2991,22.9815],[90.31,22.9981],[90.3176,23.0047],[90.3265,23.0207],[90.3257,23.0381],[90.3176,23.0435],[90.2924,23.0429],[90.3014,23.0592],[90.3274,23.0716],[90.3598,23.0645],[90.3824,23.0485],[90.396,23.0364],[90.4222,23.025],[90.4394,23.0343],[90.4501,23.0493],[90.4489,23.0557],[90.4536,23.0723],[90.4661,23.0769],[90.5036,23.0759],[90.5228,23.0801],[90.5366,23.0868],[90.5588,23.1107],[90.5656,23.1038],[90.5559,23.0968],[90.5513,23.0869],[90.5537,23.0786],[90.5656,23.0759],[90.572,23.0817],[90.5991,23.1175],[90.6029,23.1413],[90.5984,23.2004],[90.6027,23.211],[90.6145,23.1955],[90.6109,23.2308],[90.6066,23.2472],[90.5773,23.2884],[90.5691,23.295],[90.5036,23.3017],[90.488,23.3068],[90.4602,23.3197],[90.4285,23.3261],[90.4197,23.3356],[90.4041,23.3604],[90.3885,23.3724],[90.2588,23.4446],[90.2494,23.4554],[90.2503,23.4669],[90.2844,23.4462],[90.3224,23.4333],[90.5183,23.3983],[90.5519,23.385],[90.5537,23.4007],[90.5599,23.4184],[90.5681,23.4329],[90.5759,23.439],[90.5789,23.4499],[90.5768,23.5395],[90.5687,23.5475],[90.5315,23.5488],[90.515,23.5514],[90.4984,23.5573],[90.4844,23.5675],[90.4763,23.583],[90.5017,23.5679],[90.5147,23.5638],[90.5472,23.5638],[90.5594,23.5679],[90.5645,23.5764],[90.5588,23.5904],[90.5955,23.6044],[90.612,23.6061],[90.6196,23.5966],[90.6082,23.5858],[90.5921,23.5625],[90.5881,23.5342],[90.6034,23.4947],[90.6078,23.4911],[90.6221,23.5001],[90.6475,23.5079],[90.6668,23.5182],[90.6777,23.5173],[90.6953,23.5079],[90.7022,23.5284],[90.6843,23.5417],[90.6782,23.5551],[90.7023,23.5548],[90.7113,23.5671],[90.7334,23.5801],[90.7434,23.5905],[90.7362,23.6018],[90.7404,23.6104],[90.7521,23.6159],[90.7676,23.6178],[90.7699,23.6229],[90.7612,23.6342],[90.7345,23.6594],[90.7433,23.6673],[90.7511,23.6808],[90.7494,23.6951],[90.7395,23.7062],[90.7251,23.7155],[90.7237,23.7308],[90.7392,23.7527],[90.7599,23.802],[90.7611,23.8168],[90.7555,23.8384],[90.7562,23.8465],[90.7657,23.8597],[90.7785,23.8688],[90.7923,23.8722],[90.8228,23.871],[90.8499,23.8802],[90.8798,23.8626],[90.8911,23.8595],[90.9142,23.8747],[90.9524,23.9232],[90.9729,23.965],[90.9779,23.9896],[90.9735,24.0087],[90.9824,24.0323],[90.9939,24.0424],[91.0103,24.0516],[91.0297,24.0721],[91.0372,24.0931],[91.0177,24.1038],[91.0249,24.1181],[91.0071,24.1415],[91.0041,24.1659],[91.0331,24.1761],[91.066,24.218],[91.0797,24.2085],[91.0941,24.2068],[91.0969,24.2146],[91.0948,24.2365],[91.1037,24.241],[91.1234,24.2427],[91.1404,24.2479],[91.1534,24.2564],[91.1691,24.2751],[91.1836,24.3092],[91.2176,24.3231],[91.2392,24.337],[91.2257,24.357],[91.2488,24.3792],[91.2469,24.3867],[91.2354,24.4008],[91.2137,24.4187],[91.2303,24.4296],[91.2314,24.4417],[91.226,24.4654],[91.203,24.4711],[91.1876,24.4836],[91.1887,24.4911],[91.2069,24.5111],[91.2175,24.5295],[91.2314,24.5631],[91.2136,24.5719],[91.2018,24.5822],[91.1966,24.593],[91.1842,24.6072],[91.1838,24.6147],[91.2072,24.6253],[91.2118,24.6497],[91.2221,24.6664],[91.2229,24.6742],[91.2131,24.6938],[91.2025,24.6986],[91.1483,24.6996],[91.1419,24.7177],[91.1489,24.77],[91.1453,24.8145],[91.1253,24.8801],[91.0066,24.8688],[90.9777,24.8806],[90.9124,24.9789],[90.9237,25.015],[90.9323,25.0318],[90.943,25.0465],[90.9467,25.0695],[90.9317,25.1133],[90.9348,25.1564],[90.822,25.1423],[90.794,25.1454],[90.7794,25.152],[90.754,25.1676],[90.738,25.1694],[90.722,25.1566],[90.7077,25.153],[90.6706,25.1588],[90.6376,25.1711],[90.6234,25.1714],[90.5833,25.162],[90.5014,25.1688],[90.3998,25.149],[90.3646,25.15],[90.2869,25.1801],[90.1301,25.2116],[89.9081,25.2969],[89.8702,25.2956],[89.8346,25.2824],[89.819,25.285],[89.8074,25.3045],[89.7985,25.3401],[89.795,25.3742],[89.7992,25.4029]]],[[[90.5241,23.3223],[90.5296,23.3336],[90.5496,23.3262],[90.5862,23.3017],[90.5776,23.3236],[90.5394,23.35],[90.4919,23.373],[90.4557,23.385],[90.4297,23.3852],[90.4266,23.376],[90.4373,23.3618],[90.4688,23.3316],[90.4871,23.319],[90.5061,23.3142],[90.5241,23.3223]]]]},"properties":{"name":"Dhaka"}},
{"type":"Feature","geometry":{"type":"Polygon","coordinates":[[[89.8086,25.4395],[89.8232,25.4891],[89.8251,25.5645],[89.8344,25.6348],[89.8242,25.6741],[89.8015,25.7247],[89.7831,25.8144],[89.787,25.8391],[89.8301,25.908],[89.8344,25.9318],[89.8264,25.9375],[89.8107,25.9388],[89.792,25.9491],[89.8116,25.9552],[89.8256,25.9657],[89.8287,25.9794],[89.8141,25.9961],[89.7955,25.986],[89.7894,25.988],[89.7764,26.0082],[89.7558,26.0324],[89.7502,26.0416],[89.7487,26.059],[89.7498,26.0839],[89.7288,26.1142],[89.7185,26.1455],[89.7065,26.1542],[89.6777,26.1531],[89.6582,26.1592],[89.6578,26.1872],[89.6584,26.2079],[89.653,26.2227],[89.6349,26.2258],[89.6133,26.2194],[89.6064,26.211],[89.6085,26.1807],[89.6144,26.1642],[89.594,26.1697],[89.5868,26.1692],[89.5734,26.1607],[89.5628,26.1426],[89.5694,26.1301],[89.5858,26.1229],[89.6042,26.1207],[89.5779,26.1072],[89.5669,26.099],[89.567,26.0871],[89.5769,26.0826],[89.6039,26.0847],[89.6114,26.0722],[89.6029,26.0553],[89.5592,26.0222],[89.5507,25.9951],[89.5518,25.9815],[89.5491,25.9689],[89.5417,25.9597],[89.5284,25.9571],[89.5182,25.9621],[89.4953,25.9951],[89.4806,25.9992],[89.4264,25.9951],[89.4066,25.9951],[89.3914,26.0155],[89.3797,26.0153],[89.3678,26.0054],[89.3515,25.9969],[89.3353,25.9986],[89.3151,26.0068],[89.2969,26.0182],[89.273,26.0435],[89.2376,26.0581],[89.2293,26.0672],[89.2231,26.0866],[89.2126,26.099],[89.1978,26.1077],[89.1316,26.1338],[89.1192,26.1466],[89.1117,26.1645],[89.1034,26.2252],[89.0959,26.241],[89.0759,26.2711],[89.0694,26.2874],[89.0689,26.3143],[89.0803,26.3156],[89.0948,26.3095],[89.1035,26.3137],[89.1029,26.3273],[89.0957,26.3345],[89.0719,26.3406],[89.0552,26.347],[89.0573,26.3626],[89.0526,26.3746],[89.0437,26.3811],[89.0109,26.3902],[88.9865,26.4127],[88.9753,26.4179],[88.9502,26.4369],[88.941,26.4394],[88.9246,26.4321],[88.912,26.4212],[88.8995,26.4045],[88.8912,26.3858],[88.8919,26.3688],[88.9124,26.3489],[88.9412,26.3401],[88.966,26.3285],[88.9753,26.2999],[88.9897,26.2894],[89.008,26.2972],[89.0044,26.2757],[89.0116,26.2692],[89.0343,26.2658],[89.0397,26.2472],[89.0195,26.2345],[88.9753,26.2243],[88.9468,26.2329],[88.9027,26.2729],[88.8758,26.2774],[88.8556,26.2651],[88.8407,26.232],[88.8248,26.2266],[88.808,26.2334],[88.7985,26.2477],[88.784,26.2799],[88.7479,26.2925],[88.6634,26.2644],[88.6458,26.276],[88.6533,26.2831],[88.6901,26.2998],[88.703,26.3097],[88.7122,26.3283],[88.7097,26.3406],[88.6963,26.3503],[88.6734,26.3607],[88.6674,26.3682],[88.6685,26.3857],[88.6522,26.3915],[88.6499,26.3984],[88.6563,26.4151],[88.633,26.4201],[88.6115,26.4308],[88.6036,26.4402],[88.5912,26.4612],[88.5792,26.466],[88.5498,26.4667],[88.5268,26.4754],[88.5068,26.4876],[88.4879,26.5058],[88.4754,26.515],[88.4624,26.5288],[88.4465,26.5355],[88.411,26.5451],[88.3979,26.5587],[88.395,26.5784],[88.3959,26.5996],[88.3944,26.618],[88.3853,26.6235],[88.3725,26.6116],[88.3528,26.5787],[88.3324,26.5147],[88.3193,26.4949],[88.3139,26.4815],[88.3151,26.4651],[88.3225,26.4518],[88.3356,26.4482],[88.3402,26.4541],[88.343,26.4772],[88.3536,26.4846],[88.3769,26.4753],[88.4346,26.4652],[88.4611,26.4539],[88.4754,26.432],[88.4955,26.3781],[88.4976,26.3527],[88.4754,26.3558],[88.4486,26.3534],[88.4317,26.3622],[88.4138,26.3402],[88.3668,26.3134],[88.3517,26.301],[88.3366,26.2818],[88.3329,26.2672],[88.3345,26.2308],[88.3263,26.2159],[88.3087,26.2061],[88.2503,26.188],[88.2189,26.1802],[88.1969,26.1596],[88.1638,26.1405],[88.1556,26.1285],[88.1399,26.0853],[88.1412,26.0755],[88.1564,26.0614],[88.1579,26.0505],[88.151,26.0313],[88.1259,26.0134],[88.1065,25.98],[88.088,25.9232],[88.0744,25.9081],[88.082,25.8638],[88.089,25.8487],[88.0876,25.831],[88.1033,25.8148],[88.1149,25.7873],[88.1277,25.7749],[88.1464,25.7757],[88.1827,25.7924],[88.2275,25.8043],[88.2599,25.789],[88.3203,25.7253],[88.393,25.6808],[88.4194,25.6538],[88.4238,25.5922],[88.4378,25.5798],[88.4754,25.5626],[88.4856,25.5426],[88.5128,25.5237],[88.5205,25.5093],[88.5303,25.5002],[88.551,25.4965],[88.5936,25.4951],[88.6132,25.4864],[88.6454,25.4673],[88.6664,25.4629],[88.6781,25.4659],[88.7062,25.4917],[88.7327,25.491],[88.7426,25.4952],[88.742,25.5128],[88.7723,25.502],[88.8058,25.4717],[88.8149,25.4586],[88.8163,25.4372],[88.7993,25.4017],[88.7996,25.3956],[88.8104,25.3884],[88.8183,25.3596],[88.842,25.3328],[88.8593,25.3247],[88.8802,25.3235],[88.9029,25.3034],[88.9265,25.3005],[88.9753,25.3026],[89.0741,25.2998],[89.1821,25.2998],[89.2235,25.2903],[89.2267,25.2522],[89.2521,25.2013],[89.2839,25.1727],[89.3506,25.2076],[89.411,25.1949],[89.5064,25.1663],[89.605,25.1663],[89.6815,25.1595],[89.7039,25.2024],[89.7399,25.2481],[89.7457,25.2734],[89.7368,25.3278],[89.7596,25.3771],[89.7683,25.3918],[89.7826,25.3999],[89.7992,25.4029],[89.8086,25.4395]]]},"properties":{"name":"Rangpur"}},
{"type":"Feature","geometry":{"type":"Polygon","coordinates":[[[88.7315,24.1898],[88.7362,24.1746],[88.7518,24.1528],[88.7583,24.1475],[88.7826,24.1358],[88.8052,24.1222],[88.8248,24.1192],[88.843,24.1233],[88.9076,24.1511],[88.9211,24.1595],[88.931,24.1716],[88.9509,24.1705],[88.9771,24.156],[89.0001,24.1279],[89.0368,24.0954],[89.0457,24.0706],[89.066,24.0471],[89.07,24.0276],[89.0653,24.0054],[89.0683,23.9965],[89.0778,23.9859],[89.1164,23.9559],[89.1378,23.9431],[89.1596,23.9336],[89.1867,23.929],[89.2697,23.9369],[89.2967,23.9351],[89.3217,23.9299],[89.3449,23.9207],[89.378,23.9001],[89.4675,23.8649],[89.4902,23.8528],[89.5302,23.8196],[89.5559,23.8149],[89.5734,23.82],[89.6036,23.8378],[89.6198,23.8438],[89.6752,23.8485],[89.6981,23.8542],[89.6978,23.8659],[89.6849,23.9273],[89.6891,23.9493],[89.7022,23.98],[89.7878,24.0451],[89.8001,24.0559],[89.817,24.0835],[89.8196,24.119],[89.8267,24.1376],[89.8325,24.1662],[89.8282,24.1769],[89.8301,24.1861],[89.8263,24.1952],[89.8083,24.1994],[89.807,24.2266],[89.7928,24.2376],[89.7557,24.2745],[89.7556,24.3225],[89.7493,24.3609],[89.7492,24.3706],[89.7587,24.4426],[89.7596,24.4799],[89.7677,24.5113],[89.7692,24.531],[89.7657,24.5619],[89.7708,24.5725],[89.7818,24.5849],[89.7892,24.6099],[89.7892,24.6228],[89.7843,24.6419],[89.7857,24.653],[89.7967,24.6985],[89.796,24.7195],[89.7911,24.7379],[89.7764,24.7579],[89.7581,24.7733],[89.7286,24.7874],[89.7114,24.7983],[89.7011,24.8082],[89.6877,24.8327],[89.6791,24.8525],[89.6547,24.9606],[89.6533,24.9689],[89.6591,25.0528],[89.6684,25.1057],[89.6815,25.1595],[89.605,25.1663],[89.5064,25.1663],[89.411,25.1949],[89.3506,25.2076],[89.2839,25.1727],[89.2521,25.2013],[89.2267,25.2522],[89.2235,25.2903],[89.1821,25.2998],[89.0741,25.2998],[88.9753,25.3026],[88.9827,25.2945],[88.9849,25.285],[88.9753,25.2652],[88.9378,25.2402],[88.9291,25.2294],[88.928,25.2159],[88.9308,25.2026],[88.9279,25.1927],[88.9096,25.1892],[88.9242,25.1679],[88.8986,25.1693],[88.8302,25.1913],[88.8171,25.1968],[88.8025,25.1881],[88.7923,25.1666],[88.7842,25.1609],[88.7245,25.1665],[88.6646,25.1869],[88.6343,25.1923],[88.5991,25.1931],[88.5901,25.1901],[88.5777,25.1775],[88.5594,25.1708],[88.5232,25.1798],[88.4918,25.1911],[88.4754,25.1951],[88.4413,25.1897],[88.4315,25.173],[88.4342,25.1167],[88.4258,25.0511],[88.4141,25.0215],[88.391,24.9951],[88.3879,24.9688],[88.3757,24.9456],[88.3409,24.9041],[88.3228,24.8747],[88.3136,24.8683],[88.2968,24.8697],[88.2549,24.88],[88.2428,24.8806],[88.2419,24.8988],[88.2328,24.9183],[88.2188,24.9351],[88.2025,24.9453],[88.183,24.947],[88.1645,24.9411],[88.1149,24.9164],[88.1249,24.8981],[88.1381,24.8635],[88.141,24.8446],[88.1312,24.8318],[88.1174,24.8193],[88.1078,24.8011],[88.0948,24.8031],[88.0882,24.7961],[88.084,24.7705],[88.077,24.7612],[88.0532,24.755],[88.0485,24.7112],[88.0354,24.6938],[88.0272,24.6757],[88.0218,24.6456],[88.0572,24.6341],[88.0673,24.6137],[88.085,24.5939],[88.085,24.5417],[88.0988,24.5225],[88.11,24.501],[88.1388,24.4953],[88.4013,24.3694],[88.4754,24.3155],[88.4984,24.311],[88.5631,24.3082],[88.6125,24.2929],[88.6345,24.2941],[88.6495,24.3154],[88.6601,24.3383],[88.6818,24.3339],[88.7146,24.3154],[88.7375,24.2871],[88.743,24.2475],[88.7475,24.227],[88.7464,24.2141],[88.7315,24.1898]]]},"properties":{"name":"Rajshahi"}},
{"type":"Feature","geometry":{"type":"MultiPolygon","coordinates":[[[[89.0604,22.1299],[89.0635,22.111],[89.0574,22.0651],[89.062,22.0495],[89.0842,22.0212],[89.0915,22.0002],[89.0911,21.9768],[89.0804,21.9349],[89.0778,21.9143],[89.0799,21.8974],[89.1047,21.8159],[89.1194,21.801],[89.1413,21.7902],[89.1546,21.7869],[89.1741,21.81],[89.1877,21.8115],[89.1897,21.7912],[89.2207,21.7094],[89.2186,21.6986],[89.2083,21.6906],[89.2044,21.6727],[89.2105,21.6541],[89.2293,21.6439],[89.2487,21.6459],[89.2687,21.654],[89.2859,21.6656],[89.2975,21.6781],[89.2766,21.6876],[89.2737,21.6988],[89.2907,21.7333],[89.2947,21.7578],[89.2844,21.7968],[89.2839,21.8221],[89.2907,21.8221],[89.2962,21.8091],[89.3062,21.8176],[89.3226,21.8546],[89.3391,21.8767],[89.356,21.8925],[89.3596,21.9017],[89.3596,21.9177],[89.3488,21.9442],[89.346,21.957],[89.3522,21.9723],[89.3596,21.9723],[89.364,21.9551],[89.3827,21.9213],[89.387,21.9012],[89.3843,21.8778],[89.3713,21.8472],[89.3659,21.8289],[89.3628,21.7838],[89.3643,21.7582],[89.3696,21.7433],[89.3952,21.7164],[89.4064,21.7174],[89.4427,21.7466],[89.4562,21.7624],[89.4658,21.7813],[89.4695,21.8044],[89.4636,21.845],[89.4646,21.8592],[89.4758,21.8767],[89.5023,21.8975],[89.5125,21.9091],[89.5218,21.9623],[89.5005,22.0026],[89.4904,22.024],[89.4919,22.0346],[89.5091,22.0412],[89.5174,22.0665],[89.5183,22.081],[89.5017,22.1131],[89.4968,22.134],[89.4888,22.1296],[89.4841,22.1167],[89.4832,22.1026],[89.4758,22.1026],[89.4675,22.229],[89.4758,22.2951],[89.4832,22.2951],[89.493,22.2735],[89.4942,22.2536],[89.4894,22.2088],[89.492,22.1884],[89.5371,22.089],[89.5365,22.0758],[89.5261,22.0551],[89.5234,22.0446],[89.5248,22.0001],[89.5329,21.9847],[89.5514,21.994],[89.5565,22.0085],[89.5645,22.0722],[89.5667,22.0821],[89.577,22.1013],[89.5794,22.1132],[89.5788,22.1359],[89.5713,22.1579],[89.5503,22.1921],[89.5492,22.2053],[89.561,22.2231],[89.5803,22.2368],[89.5862,22.2454],[89.5772,22.2685],[89.5808,22.2772],[89.5925,22.2882],[89.6062,22.3156],[89.617,22.3184],[89.6106,22.2989],[89.6071,22.2783],[89.606,22.2569],[89.5979,22.2403],[89.5672,22.2028],[89.5679,22.1889],[89.5814,22.1741],[89.5938,22.1554],[89.6025,22.1345],[89.606,22.1132],[89.6006,22.0913],[89.5767,22.0517],[89.5713,22.0312],[89.5635,21.9731],[89.5676,21.9007],[89.5645,21.8842],[89.5569,21.8688],[89.5383,21.8486],[89.5303,21.8358],[89.5274,21.8128],[89.5389,21.7715],[89.5371,21.7538],[89.5657,21.7134],[89.5869,21.7008],[89.606,21.7191],[89.5928,21.7544],[89.5955,21.76],[89.6204,21.7644],[89.6315,21.7641],[89.6436,21.7569],[89.6682,21.7509],[89.69,21.7652],[89.7007,21.7849],[89.6921,21.7948],[89.672,21.8043],[89.6498,21.8264],[89.6304,21.8515],[89.619,21.8699],[89.647,21.9251],[89.6613,21.9058],[89.6633,21.8963],[89.6526,21.8789],[89.6532,21.8677],[89.6613,21.8494],[89.6734,21.8401],[89.6904,21.8337],[89.7258,21.8289],[89.7534,21.8439],[89.7659,21.8467],[89.7757,21.8276],[89.7864,21.8289],[89.8142,21.8408],[89.8252,21.8563],[89.8509,21.8775],[89.8804,21.8842],[89.8872,21.9001],[89.8816,21.913],[89.8718,21.9243],[89.8638,21.9433],[89.8503,21.9631],[89.846,21.9829],[89.8524,22.0104],[89.8479,22.0339],[89.8359,22.0495],[89.8184,22.06],[89.7972,22.0685],[89.7972,22.076],[89.8162,22.076],[89.8462,22.0706],[89.863,22.079],[89.8713,22.0919],[89.8743,22.1088],[89.8729,22.1436],[89.8613,22.211],[89.8508,22.2465],[89.8387,22.2678],[89.8804,22.3422],[89.8841,22.3635],[89.8748,22.3977],[89.8729,22.4186],[89.9031,22.3964],[89.9204,22.3918],[89.9336,22.4235],[89.9474,22.4397],[89.9795,22.4701],[89.9711,22.493],[89.9663,22.5003],[89.9504,22.508],[89.946,22.5168],[89.95,22.5324],[89.9585,22.5507],[89.9604,22.578],[89.9525,22.5995],[89.9306,22.6158],[89.9191,22.6464],[89.9017,22.6638],[89.9126,22.6723],[89.9292,22.6715],[89.9298,22.6856],[89.9162,22.6955],[89.8909,22.6978],[89.8844,22.7059],[89.8934,22.716],[89.9239,22.7345],[89.9289,22.7431],[89.9154,22.7525],[89.9113,22.7617],[89.9151,22.776],[89.9298,22.7835],[89.932,22.7909],[89.925,22.8029],[89.932,22.8148],[89.948,22.8171],[89.9621,22.8274],[89.9432,22.8574],[89.9288,22.8702],[89.8875,22.8904],[89.8596,22.9183],[89.8384,22.9281],[89.8284,22.9392],[89.8186,22.9667],[89.8053,22.9832],[89.7732,23.0104],[89.7571,23.0282],[89.7328,23.0764],[89.723,23.0896],[89.6981,23.097],[89.6894,23.1039],[89.682,23.1176],[89.6814,23.138],[89.701,23.1226],[89.7112,23.1191],[89.7186,23.1334],[89.7341,23.1535],[89.7531,23.1618],[89.7563,23.1706],[89.7505,23.1799],[89.7366,23.1852],[89.725,23.1826],[89.7075,23.1701],[89.695,23.1715],[89.6803,23.1893],[89.6835,23.21],[89.6812,23.2271],[89.6278,23.2404],[89.6365,23.2554],[89.6565,23.2734],[89.6677,23.2889],[89.6379,23.2883],[89.6126,23.3153],[89.5978,23.3531],[89.5989,23.3851],[89.6062,23.3851],[89.6137,23.3761],[89.6268,23.3708],[89.6079,23.4531],[89.5989,23.4732],[89.5791,23.4902],[89.5484,23.5058],[89.5191,23.5085],[89.5032,23.4869],[89.4967,23.4995],[89.497,23.5142],[89.5167,23.5275],[89.526,23.5375],[89.5099,23.5467],[89.4997,23.5701],[89.4807,23.5931],[89.4213,23.6745],[89.4111,23.6793],[89.3814,23.6735],[89.3527,23.6718],[89.3115,23.7202],[89.3085,23.7293],[89.3604,23.853],[89.3595,23.8812],[89.3449,23.9207],[89.3217,23.9299],[89.2967,23.9351],[89.2697,23.9369],[89.1867,23.929],[89.1596,23.9336],[89.1378,23.9431],[89.1164,23.9559],[89.0778,23.9859],[89.0683,23.9965],[89.0653,24.0054],[89.07,24.0276],[89.066,24.0471],[89.0457,24.0706],[89.0368,24.0954],[89.0001,24.1279],[88.9771,24.156],[88.9509,24.1705],[88.931,24.1716],[88.9211,24.1595],[88.9076,24.1511],[88.843,24.1233],[88.8248,24.1192],[88.8052,24.1222],[88.7826,24.1358],[88.7583,24.1475],[88.7518,24.1528],[88.7362,24.1746],[88.7315,24.1898],[88.6938,24.1753],[88.6838,24.1665],[88.6781,24.1543],[88.683,24.1243],[88.6818,24.1127],[88.6741,24.0826],[88.679,24.0712],[88.6978,24.0563],[88.7009,24.0437],[88.725,24.0384],[88.7255,24.0289],[88.7138,24.0147],[88.7016,23.9953],[88.7084,23.9836],[88.7144,23.9644],[88.7171,23.9431],[88.7142,23.9252],[88.7044,23.9137],[88.6665,23.8795],[88.6531,23.8698],[88.6339,23.8661],[88.6132,23.8678],[88.5936,23.8669],[88.5776,23.8552],[88.5744,23.8456],[88.5775,23.8185],[88.5724,23.8069],[88.5577,23.7857],[88.5525,23.7654],[88.5612,23.741],[88.5401,23.65],[88.5416,23.6388],[88.5664,23.6287],[88.5617,23.602],[88.5714,23.5923],[88.5815,23.5883],[88.6092,23.5888],[88.6242,23.5739],[88.6476,23.5351],[88.6645,23.5183],[88.6938,23.4998],[88.7046,23.4952],[88.7194,23.4681],[88.7319,23.4726],[88.7437,23.4893],[88.7568,23.4988],[88.7702,23.4888],[88.7679,23.4673],[88.7193,23.3483],[88.695,23.3126],[88.6859,23.2933],[88.6866,23.2716],[88.6966,23.2524],[88.71,23.2412],[88.7757,23.2216],[88.7942,23.225],[88.8095,23.2361],[88.8227,23.238],[88.8396,23.2348],[88.927,23.2065],[88.9542,23.2074],[88.96,23.2027],[88.9547,23.1838],[88.9459,23.1743],[88.9191,23.1539],[88.8648,23.1003],[88.8513,23.0751],[88.8487,23.0238],[88.8394,22.9954],[88.8388,22.9758],[88.8428,22.9646],[88.8617,22.9424],[88.8722,22.9268],[88.8935,22.8796],[88.9051,22.8664],[88.9331,22.8581],[88.9445,22.848],[88.9468,22.8345],[88.9451,22.8151],[88.9369,22.7823],[88.915,22.7544],[88.9081,22.7408],[88.9106,22.7226],[88.9225,22.6937],[88.93,22.6586],[88.9424,22.6375],[88.952,22.6119],[88.9564,22.585],[88.9503,22.562],[88.928,22.5481],[88.959,22.5368],[88.971,22.5279],[88.98,22.4909],[88.9984,22.4512],[89.0025,22.428],[88.9922,22.407],[88.9896,22.3869],[89.0015,22.3337],[89.0069,22.3214],[89.0235,22.2948],[89.0091,22.2856],[89.0186,22.2647],[89.0623,22.2116],[89.0707,22.1948],[89.0762,22.175],[89.0782,22.1508],[89.0604,22.1299]]],[[[89.1157,21.7812],[89.0928,21.7934],[89.0813,21.8229],[89.0715,21.8903],[89.0676,21.9044],[89.0574,21.9177],[89.0457,21.9171],[89.0447,21.9078],[89.0511,21.8903],[89.0537,21.8747],[89.0638,21.8415],[89.0642,21.8221],[89.0578,21.8033],[89.0515,21.7932],[89.1023,21.7368],[89.1325,21.7216],[89.1447,21.7393],[89.139,21.7668],[89.1157,21.7812]]]]},"properties":{"name":"Khulna"}},
{"type":"Feature","geometry":{"type":"MultiPolygon","coordinates":[[[[90.4501,23.0493],[90.4394,23.0343],[90.4222,23.025],[90.396,23.0364],[90.3824,23.0485],[90.3598,23.0645],[90.3274,23.0716],[90.3014,23.0592],[90.2924,23.0429],[90.3176,23.0435],[90.3257,23.0381],[90.3265,23.0207],[90.3176,23.0047],[90.31,22.9981],[90.2991,22.9815],[90.2892,22.9754],[90.2745,22.9736],[90.2626,22.9778],[90.2485,22.987],[90.2291,23.0089],[90.2237,23.0253],[90.2214,23.0508],[90.2118,23.0663],[90.1924,23.0716],[90.1435,23.0628],[90.1343,23.0475],[90.1266,23.0289],[90.108,23.0196],[90.0912,23.0039],[90.0828,22.992],[90.0578,22.9686],[90.044,22.9406],[90.019,22.9086],[89.9953,22.8862],[89.9812,22.8791],[89.9288,22.8702],[89.9432,22.8574],[89.9621,22.8274],[89.948,22.8171],[89.932,22.8148],[89.925,22.8029],[89.932,22.7909],[89.9298,22.7835],[89.9151,22.776],[89.9113,22.7617],[89.9154,22.7525],[89.9289,22.7431],[89.9239,22.7345],[89.8934,22.716],[89.8844,22.7059],[89.8909,22.6978],[89.9162,22.6955],[89.9298,22.6856],[89.9292,22.6715],[89.9126,22.6723],[89.9017,22.6638],[89.9191,22.6464],[89.9306,22.6158],[89.9525,22.5995],[89.9604,22.578],[89.9585,22.5507],[89.95,22.5324],[89.946,22.5168],[89.9504,22.508],[89.9663,22.5003],[89.9711,22.493],[89.9795,22.4701],[89.992,22.4699],[89.9828,22.4453],[89.9002,22.3339],[89.8804,22.2882],[89.8753,22.264],[89.8804,22.2404],[89.8983,22.2117],[89.9031,22.1769],[89.9124,22.1356],[89.9146,22.0617],[89.9263,22.0272],[89.9344,21.9977],[89.9497,21.9809],[89.9678,21.9746],[89.9828,21.9866],[89.9852,21.9994],[89.9828,22.0446],[89.9885,22.053],[90.0154,22.0779],[90.0244,22.089],[90.04,22.1381],[90.0526,22.1555],[90.0784,22.164],[90.0726,22.152],[90.0521,22.1411],[90.0427,22.1313],[90.0347,22.1052],[90.0381,22.0753],[90.0354,22.0598],[90.029,22.053],[90.0108,22.0412],[90.0032,22.0294],[90.0021,22.0141],[89.9963,22.0002],[90.0282,21.9881],[90.0524,21.989],[90.0737,22.0192],[90.0818,22.041],[90.0889,22.0512],[90.1483,22.1108],[90.1648,22.1198],[90.1917,22.1231],[90.2058,22.133],[90.2183,22.1557],[90.2361,22.1989],[90.2391,22.1723],[90.2317,22.1457],[90.2162,22.1232],[90.1951,22.1095],[90.1729,22.117],[90.1641,22.1132],[90.1467,22.089],[90.1056,22.0543],[90.096,22.0401],[90.0858,22.0002],[90.0772,21.988],[90.0449,21.9661],[90.0339,21.9435],[90.0313,21.8892],[90.0244,21.8625],[90.0363,21.8612],[90.0493,21.851],[90.0669,21.8534],[90.0794,21.8669],[90.0889,21.8699],[90.0985,21.8786],[90.1162,21.9193],[90.1218,21.9154],[90.1262,21.9012],[90.1209,21.8893],[90.105,21.8703],[90.1125,21.8563],[90.0954,21.8594],[90.0886,21.8467],[90.0929,21.8303],[90.1091,21.8221],[90.1268,21.8188],[90.1644,21.8043],[90.1848,21.801],[90.2038,21.8046],[90.2176,21.8135],[90.2727,21.8574],[90.2829,21.8708],[90.2907,21.8903],[90.3,21.9277],[90.3044,21.9658],[90.3086,21.984],[90.3279,22.0205],[90.3322,22.0381],[90.3474,22.0553],[90.3657,22.0812],[90.3738,22.1026],[90.3771,22.1336],[90.3801,22.1436],[90.3926,22.143],[90.3952,22.1572],[90.4129,22.178],[90.4105,22.1957],[90.3909,22.2088],[90.3887,22.2232],[90.3987,22.2675],[90.3943,22.2882],[90.4109,22.2842],[90.4141,22.2718],[90.408,22.2404],[90.41,22.2273],[90.4216,22.1989],[90.4175,22.175],[90.3932,22.1274],[90.3875,22.1026],[90.3938,22.0947],[90.4085,22.0859],[90.4387,22.076],[90.45,22.0808],[90.4596,22.0919],[90.4883,22.1386],[90.5012,22.1767],[90.5117,22.1853],[90.5383,22.1989],[90.558,22.2034],[90.5816,22.2382],[90.6135,22.3149],[90.6193,22.3559],[90.6184,22.3767],[90.6135,22.3969],[90.5936,22.4323],[90.5864,22.4506],[90.5862,22.4732],[90.6066,22.4658],[90.5897,22.5004],[90.5778,22.5337],[90.5597,22.5623],[90.5241,22.5831],[90.5051,22.5862],[90.4873,22.5837],[90.4725,22.5756],[90.4627,22.562],[90.4605,22.5512],[90.4636,22.5314],[90.4627,22.521],[90.445,22.5041],[90.4421,22.5087],[90.4535,22.5642],[90.4592,22.5793],[90.4686,22.5847],[90.4914,22.5878],[90.5002,22.5924],[90.5127,22.6115],[90.509,22.6464],[90.4968,22.6787],[90.4929,22.7099],[90.4899,22.7202],[90.479,22.735],[90.4617,22.7488],[90.4446,22.7517],[90.4352,22.7333],[90.4158,22.7425],[90.3872,22.7513],[90.3726,22.7614],[90.3943,22.7748],[90.4064,22.7631],[90.4199,22.7683],[90.424,22.7817],[90.408,22.7947],[90.436,22.8006],[90.4481,22.8284],[90.4572,22.8618],[90.4763,22.8841],[90.4905,22.8852],[90.52,22.8802],[90.5349,22.8872],[90.54,22.8966],[90.536,22.9034],[90.521,22.9157],[90.5104,22.9182],[90.507,22.9421],[90.487,22.9661],[90.4683,22.9961],[90.4544,23.0275],[90.4501,23.0493]]],[[[90.5935,21.9866],[90.5264,21.9436],[90.5178,21.932],[90.5154,21.9213],[90.5179,21.8933],[90.5315,21.8767],[90.5036,21.8699],[90.5036,21.8625],[90.5213,21.8615],[90.5408,21.8759],[90.5571,21.8975],[90.5656,21.9177],[90.5808,21.9125],[90.5908,21.9351],[90.6066,21.9388],[90.6008,21.9546],[90.5935,21.9661],[90.5935,21.9866]]],[[[90.3322,21.9388],[90.3225,21.9167],[90.3186,21.8928],[90.3186,21.8463],[90.3322,21.8495],[90.3416,21.8603],[90.3655,21.9387],[90.3906,21.9783],[90.3943,22.0002],[90.3714,21.9948],[90.354,21.9768],[90.3322,21.9388]]],[[[90.3875,22.048],[90.3739,22.0456],[90.3587,22.0227],[90.3459,21.9936],[90.3396,21.9723],[90.346,21.9723],[90.3528,21.993],[90.3811,22.0231],[90.3875,22.048]]],[[[90.4352,22.0412],[90.4285,22.048],[90.4155,22.0383],[90.4119,22.0287],[90.4142,21.9971],[90.4119,21.976],[90.3943,21.9388],[90.3945,21.9215],[90.4024,21.9069],[90.4155,21.9005],[90.4319,21.9078],[90.4548,21.9331],[90.4763,21.945],[90.4862,21.9768],[90.4733,22.0036],[90.4352,22.0412]]],[[[90.5444,22.0617],[90.509,22.0331],[90.5036,22.0241],[90.5046,22.0105],[90.509,21.9994],[90.5195,21.9947],[90.5383,22.0002],[90.5597,22.0237],[90.5687,22.0581],[90.5746,22.0961],[90.5862,22.1306],[90.5918,22.1191],[90.5935,22.1026],[90.6135,22.164],[90.6045,22.1656],[90.5928,22.1594],[90.5725,22.1374],[90.5601,22.1377],[90.5335,22.1101],[90.5208,22.1026],[90.5031,22.0963],[90.4917,22.0801],[90.4856,22.0583],[90.4837,22.035],[90.4899,22.035],[90.4954,22.045],[90.5383,22.0685],[90.5444,22.0617]]],[[[90.9417,22.205],[90.9356,22.2125],[90.9275,22.1903],[90.9203,22.1601],[90.9192,22.1321],[90.9294,22.1169],[90.949,22.1216],[90.9567,22.1448],[90.9567,22.1989],[90.9541,22.2081],[90.9417,22.205]]],[[[90.9764,22.1858],[90.9878,22.1954],[90.9948,22.2138],[90.9978,22.2351],[90.9969,22.2535],[90.9829,22.2592],[90.9771,22.2392],[90.9764,22.1858]]],[[[90.9529,22.2268],[90.9901,22.2814],[90.9944,22.3021],[90.9935,22.3223],[90.9839,22.3559],[90.9764,22.3633],[90.9662,22.3474],[90.9602,22.323],[90.9567,22.2777],[90.9402,22.2468],[90.9372,22.2327],[90.9529,22.2268]]],[[[90.6196,22.4248],[90.6262,22.407],[90.6338,22.3676],[90.6401,22.3497],[90.6333,22.3497],[90.635,22.3176],[90.6467,22.3261],[90.6404,22.366],[90.6502,22.3762],[90.6587,22.3795],[90.6477,22.4072],[90.6331,22.4316],[90.6196,22.4453],[90.6076,22.4503],[90.5991,22.4421],[90.6014,22.4292],[90.6196,22.4248]]],[[[90.6475,22.4248],[90.6673,22.439],[90.667,22.4584],[90.6611,22.48],[90.6535,22.4835],[90.6475,22.4248]]],[[[90.7906,22.4953],[90.7669,22.5175],[90.7545,22.5484],[90.747,22.5969],[90.7313,22.6205],[90.7155,22.6383],[90.7014,22.6619],[90.6841,22.6944],[90.6715,22.7224],[90.6506,22.7874],[90.631,22.7856],[90.5962,22.7754],[90.5855,22.7681],[90.5786,22.757],[90.5563,22.6747],[90.554,22.6398],[90.5588,22.6029],[90.575,22.5989],[90.6314,22.5616],[90.6475,22.5483],[90.6589,22.5244],[90.6706,22.4639],[90.6818,22.4453],[90.6777,22.4267],[90.6799,22.4072],[90.688,22.3776],[90.6819,22.3604],[90.6818,22.3019],[90.6735,22.2664],[90.6318,22.1821],[90.6222,22.1451],[90.6333,22.1231],[90.619,22.1013],[90.6078,22.0723],[90.6035,22.044],[90.61,22.0241],[90.626,22.0272],[90.6818,22.1026],[90.6699,22.0749],[90.6512,22.0446],[90.6394,22.0161],[90.6475,21.994],[90.6577,21.9929],[90.6917,22.007],[90.7178,22.0484],[90.7271,22.0537],[90.75,22.076],[90.7573,22.0617],[90.7748,22.0759],[90.8279,22.1524],[90.8362,22.1782],[90.835,22.3396],[90.855,22.4347],[90.8346,22.4583],[90.7906,22.4953]]],[[[90.6453,22.8493],[90.6268,22.8572],[90.6066,22.8773],[90.5923,22.8819],[90.5444,22.8807],[90.5376,22.8668],[90.5212,22.8647],[90.4868,22.8704],[90.4734,22.8651],[90.4661,22.8518],[90.4627,22.8158],[90.4657,22.7881],[90.4642,22.7789],[90.4557,22.7674],[90.4829,22.7598],[90.4928,22.7532],[90.4982,22.7338],[90.521,22.7118],[90.5346,22.7288],[90.5297,22.7444],[90.5316,22.7692],[90.5466,22.7837],[90.5618,22.7888],[90.591,22.8139],[90.6281,22.8121],[90.6624,22.8055],[90.6782,22.8083],[90.6636,22.8289],[90.6453,22.8493]]],[[[90.6673,22.953],[90.6673,22.9592],[90.6454,22.9748],[90.6073,23.0181],[90.5862,23.0349],[90.5613,23.0326],[90.528,23.0076],[90.5081,22.9758],[90.5241,22.953],[90.5345,22.9512],[90.5725,22.953],[90.5887,22.9621],[90.6077,22.9526],[90.6196,22.9325],[90.6362,22.9213],[90.6673,22.9182],[90.6546,22.9373],[90.6416,22.9523],[90.6673,22.953]]],[[[90.5104,23.069],[90.4944,23.0629],[90.4557,23.0628],[90.4609,23.0485],[90.4695,23.0076],[90.4778,23.0124],[90.5002,23.038],[90.5156,23.0519],[90.5171,23.0593],[90.5104,23.069]]]]},"properties":{"name":"Barisal"}}
]}